0 COSMOS 1375 DEB
1 17803U 82055AV  13282.36199586  .00000158  00000-0  23319-3 0  7254
2 17803 065.8326 248.0287 0043609 349.3092 173.6684 13.78816285404624
0 COSMOS 1375 DEB
1 17803U 82055AV  13285.25305597  .00000119  00000-0  19534-3 0  7268
2 17803 065.8330 240.8398 0043875 348.0080 124.0065 13.78817960405029
0 COSMOS 1375 DEB
1 17803U 82055AV  13287.93552315  .00000218  00000-0  29136-3 0  7277
2 17803 065.8333 234.1694 0044084 346.8278 118.9397 13.78819113405397
0 COSMOS 1375 DEB
1 17803U 82055AV  13289.95936289  .00000192  00000-0  26640-3 0  7286
2 17803 065.8333 229.1370 0044261 345.9706 084.6266 13.78819891405673
0 COSMOS 1375 DEB
1 17803U 82055AV  13292.06911331  .00000188  00000-0  26227-3 0  7290
2 17803 065.8332 223.8910 0044445 345.0601 116.7686 13.78820778405963
0 COSMOS 1375 DEB
1 17803U 82055AV  13294.17427576  .00000157  00000-0  23207-3 0  7300
2 17803 065.8330 218.6561 0044617 344.1325 126.1632 13.78822118406258
0 COSMOS 1375 DEB
1 17803U 82055AV  13296.21583634  .00000143  00000-0  21891-3 0  7318
2 17803 065.8330 213.5796 0044778 343.2185 179.8818 13.78823410406532
